[{"OBJECT_NAME":"STARLINK-34617","OBJECT_ID":"2025-161A","EPOCH":"2026-03-09T22:23:44.762208","MEAN_MOTION":15.30189867,"ECCENTRICITY":0.00013104,"INCLINATION":53.1597,"RA_OF_ASC_NODE":293.3241,"ARG_OF_PERICENTER":156.9847,"MEAN_ANOMALY":203.1213,"EPHEMERIS_TYPE":0,"CLASSIFICATION_TYPE":"U","NORAD_CAT_ID":65015,"ELEMENT_SET_NO":999,"REV_AT_EPOCH":3426,"BSTAR":0.0009490239,"MEAN_MOTION_DOT":0.00027845,"MEAN_MOTION_DDOT":0},{"OBJECT_NAME":"CZ-6A DEB","OBJECT_ID":"2022-151QV","EPOCH":"2026-03-09T04:36:08.895168","MEAN_MOTION":15.24642942,"ECCENTRICITY":0.00273347,"INCLINATION":98.639,"RA_OF_ASC_NODE":154.2763,"ARG_OF_PERICENTER":174.5721,"MEAN_ANOMALY":185.5815,"EPHEMERIS_TYPE":0,"CLASSIFICATION_TYPE":"U","NORAD_CAT_ID":54908,"ELEMENT_SET_NO":999,"REV_AT_EPOCH":17373,"BSTAR":0.0098290719,"MEAN_MOTION_DOT":0.00253193,"MEAN_MOTION_DDOT":0}]
